{
  "links" : {
    "next" : "https://api.nasa.gov/neo/rest/v1/neo/browse?page=38&size=20&api_key=jqAGvNAwUIBu4fl9FSOjdm3V4F7hIglRzI6pdX9d",
    "prev" : "https://api.nasa.gov/neo/rest/v1/neo/browse?page=36&size=20&api_key=jqAGvNAwUIBu4fl9FSOjdm3V4F7hIglRzI6pdX9d",
    "self" : "https://api.nasa.gov/neo/rest/v1/neo/browse?page=37&size=20&api_key=jqAGvNAwUIBu4fl9FSOjdm3V4F7hIglRzI6pdX9d"
  },
  "page" : {
    "size" : 20,
    "total_elements" : 20750,
    "total_pages" : 1038,
    "number" : 37
  },
  "near_earth_objects" : [ {
    "links" : {
      "self" : "https://api.nasa.gov/neo/rest/v1/neo/3398133?api_key=jqAGvNAwUIBu4fl9FSOjdm3V4F7hIglRzI6pdX9d"
    },
    "neo_reference_id" : "3398133",
    "name" : "(2007 YM1)",
    "designation" : "2007 YM1",
    "nasa_jpl_url" : "http://ssd.jpl.nasa.gov/sbdb.cgi?sstr=3398133",
    "absolute_magnitude_h" : 20.8,
    "estimated_diameter" : {
      "kilometers" : {
        "estimated_diameter_min" : 0.1838886721,
        "estimated_diameter_max" : 0.411187571
      },
      "meters" : {
        "estimated_diameter_min" : 183.8886720703,
        "estimated_diameter_max" : 411.1875710413
      },
      "miles" : {
        "estimated_diameter_min" : 0.1142630881,
        "estimated_diameter_max" : 0.2555000322
      },
      "feet" : {
        "estimated_diameter_min" : 603.309310875,
        "estimated_diameter_max" : 1349.040630575
      }
    },
    "is_potentially_hazardous_asteroid" : false,
    "close_approach_data" : [ {
      "close_approach_date" : "2007-12-21",
      "epoch_date_close_approach" : 1198224000000,
      "relative_velocity" : {
        "kilometers_per_second" : "18.6418189006",
        "kilometers_per_hour" : "67110.5480422136",
        "miles_per_hour" : "41699.8846987855"
      },
      "miss_distance" : {
        "astronomical" : "0.178373968",
        "lunar" : "69.3874740601",
        "kilometers" : "26684366",
        "miles" : "16580896"
      },
      "orbiting_body" : "Earth"
    } ],
    "orbital_data" : {
      "orbit_id" : "14",
      "orbit_determination_date" : "2017-04-06 09:04:52",
      "first_observation_date" : "2007-12-18",
      "last_observation_date" : "2008-01-10",
      "data_arc_in_days" : 23,
      "observations_used" : 75,
      "orbit_uncertainty" : "7",
      "minimum_orbit_intersection" : ".1585",
      "jupiter_tisserand_invariant" : "3.094",
      "epoch_osculation" : "2458600.5",
      "eccentricity" : ".5359709730350614",
      "semi_major_axis" : "2.460014380173538",
      "inclination" : "32.49396048964555",
      "ascending_node_longitude" : "266.534747077842",
      "orbital_period" : "1409.304684707633",
      "perihelion_distance" : "1.141518079151683",
      "perihelion_argument" : "183.49539940",
      "aphelion_distance" : "3.778510681195392",
      "perihelion_time" : "2458688.943402182583",
      "mean_anomaly" : "337.4075647862229",
      "mean_motion" : ".2554451169476413",
      "equinox" : "J2000",
      "orbit_class" : {
        "orbit_class_type" : "AMO",
        "orbit_class_range" : "1.017 AU < q (perihelion) < 1.3 AU",
        "orbit_class_description" : "Near-Earth asteroid orbits similar to that of 1221 Amor"
      }
    },
    "is_sentry_object" : false
  }, {
    "links" : {
      "self" : "https://api.nasa.gov/neo/rest/v1/neo/3398653?api_key=jqAGvNAwUIBu4fl9FSOjdm3V4F7hIglRzI6pdX9d"
    },
    "neo_reference_id" : "3398653",
    "name" : "(2007 YR56)",
    "designation" : "2007 YR56",
    "nasa_jpl_url" : "http://ssd.jpl.nasa.gov/sbdb.cgi?sstr=3398653",
    "absolute_magnitude_h" : 26.1,
    "estimated_diameter" : {
      "kilometers" : {
        "estimated_diameter_min" : 0.0160160338,
        "estimated_diameter_max" : 0.0358129403
      },
      "meters" : {
        "estimated_diameter_min" : 16.0160337979,
        "estimated_diameter_max" : 35.8129403019
      },
      "miles" : {
        "estimated_diameter_min" : 0.0099518989,
        "estimated_diameter_max" : 0.0222531225
      },
      "feet" : {
        "estimated_diameter_min" : 52.5460443254,
        "estimated_diameter_max" : 117.4965270602
      }
    },
    "is_potentially_hazardous_asteroid" : false,
    "close_approach_data" : [ {
      "close_approach_date" : "2007-12-30",
      "epoch_date_close_approach" : 1199001600000,
      "relative_velocity" : {
        "kilometers_per_second" : "10.013578716",
        "kilometers_per_hour" : "36048.8833775042",
        "miles_per_hour" : "22399.3742297609"
      },
      "miss_distance" : {
        "astronomical" : "0.0250264092",
        "lunar" : "9.7352733612",
        "kilometers" : "3743897.5",
        "miles" : "2326350"
      },
      "orbiting_body" : "Earth"
    } ],
    "orbital_data" : {
      "orbit_id" : "9",
      "orbit_determination_date" : "2017-04-06 09:04:49",
      "first_observation_date" : "2007-12-31",
      "last_observation_date" : "2008-01-05",
      "data_arc_in_days" : 5,
      "observations_used" : 25,
      "orbit_uncertainty" : "8",
      "minimum_orbit_intersection" : ".0162259",
      "jupiter_tisserand_invariant" : "3.632",
      "epoch_osculation" : "2454467.5",
      "eccentricity" : ".5161919877277048",
      "semi_major_axis" : "2.014007751888333",
      "inclination" : "10.33715970063947",
      "ascending_node_longitude" : "97.61371992283271",
      "orbital_period" : "1043.97508370602",
      "perihelion_distance" : ".9743930871420883",
      "perihelion_argument" : "336.1016919988202",
      "aphelion_distance" : "3.053622416634577",
      "perihelion_time" : "2454445.865476060441",
      "mean_anomaly" : "7.460358719092222",
      "mean_motion" : ".3448358161212349",
      "equinox" : "J2000",
      "orbit_class" : {
        "orbit_class_type" : "APO",
        "orbit_class_range" : "a (semi-major axis) > 1.0 AU; q (perihelion) < 1.017 AU",
        "orbit_class_description" : "Near-Earth asteroid orbits which cross the Earth’s orbit similar to that of 1862 Apollo"
      }
    },
    "is_sentry_object" : false
  }, {
    "links" : {
      "self" : "https://api.nasa.gov/neo/rest/v1/neo/3404166?api_key=jqAGvNAwUIBu4fl9FSOjdm3V4F7hIglRzI6pdX9d"
    },
    "neo_reference_id" : "3404166",
    "name" : "(2007 YY59)",
    "designation" : "2007 YY59",
    "nasa_jpl_url" : "http://ssd.jpl.nasa.gov/sbdb.cgi?sstr=3404166",
    "absolute_magnitude_h" : 24.1,
    "estimated_diameter" : {
      "kilometers" : {
        "estimated_diameter_min" : 0.040230458,
        "estimated_diameter_max" : 0.0899580388
      },
      "meters" : {
        "estimated_diameter_min" : 40.2304579834,
        "estimated_diameter_max" : 89.9580388169
      },
      "miles" : {
        "estimated_diameter_min" : 0.0249980399,
        "estimated_diameter_max" : 0.0558973165
      },
      "feet" : {
        "estimated_diameter_min" : 131.9896957704,
        "estimated_diameter_max" : 295.1379320721
      }
    },
    "is_potentially_hazardous_asteroid" : false,
    "close_approach_data" : [ {
      "close_approach_date" : "2007-11-28",
      "epoch_date_close_approach" : 1196236800000,
      "relative_velocity" : {
        "kilometers_per_second" : "7.1201888886",
        "kilometers_per_hour" : "25632.6799989233",
        "miles_per_hour" : "15927.1505248865"
      },
      "miss_distance" : {
        "astronomical" : "0.0355072177",
        "lunar" : "13.8123073578",
        "kilometers" : "5311804",
        "miles" : "3300602"
      },
      "orbiting_body" : "Earth"
    } ],
    "orbital_data" : {
      "orbit_id" : "6",
      "orbit_determination_date" : "2017-04-06 09:04:48",
      "first_observation_date" : "2007-12-30",
      "last_observation_date" : "2008-01-14",
      "data_arc_in_days" : 15,
      "observations_used" : 12,
      "orbit_uncertainty" : "8",
      "minimum_orbit_intersection" : ".0341808",
      "jupiter_tisserand_invariant" : "3.200",
      "epoch_osculation" : "2454469.5",
      "eccentricity" : ".5917905537202316",
      "semi_major_axis" : "2.498132675751846",
      "inclination" : ".6838792140163588",
      "ascending_node_longitude" : "121.9011599144071",
      "orbital_period" : "1442.187333478175",
      "perihelion_distance" : "1.019761356302057",
      "perihelion_argument" : "300.9550312798744",
      "aphelion_distance" : "3.976503995201634",
      "perihelion_time" : "2454430.889438531929",
      "mean_anomaly" : "9.638000421888959",
      "mean_motion" : ".2496208305558857",
      "equinox" : "J2000",
      "orbit_class" : {
        "orbit_class_type" : "AMO",
        "orbit_class_range" : "1.017 AU < q (perihelion) < 1.3 AU",
        "orbit_class_description" : "Near-Earth asteroid orbits similar to that of 1221 Amor"
      }
    },
    "is_sentry_object" : false
  } ]
}